{
  "type": "FeatureCollection",
  "features": [
    {
      "type": "Feature",
      "properties": {
        "norad_id": 31212,
        "name": "FENGYUN 1C DEB",
        "group": "fengyun-1c-debris",
        "lat": 79.76532640049308,
        "lon": -36.66924912808328,
        "alt_km": 814.761302386506,
        "timestamp": "2025-12-21T16:47:55.019440+00:00",
        "meta_object_name": "FENGYUN 1C DEB",
        "meta_object_id": "1999-025BKS",
        "meta_epoch": "2025-12-14T12:45:56.653344",
        "meta_mean_motion": 14.13124373,
        "meta_eccentricity": 0.00752745,
        "meta_inclination": 99.2196,
        "meta_ra_of_asc_node": 20.0508,
        "meta_arg_of_pericenter": 167.0098,
        "meta_mean_anomaly": 193.3035,
        "meta_ephemeris_type": 0,
        "meta_classification_type": "U",
        "meta_norad_cat_id": 31212,
        "meta_element_set_no": 999,
        "meta_rev_at_epoch": 95684,
        "meta_bstar": 0.0014706798,
        "meta_mean_motion_dot": 2.778e-05,
        "meta_mean_motion_ddot": 0,
        "tle_line1": "1 31212U 99025BKS 25348.53190571  .00002778  00000+0  14707-2 0  9991",
        "tle_line2": "2 31212  99.2196  20.0508 0075274 167.0098 193.3035 14.13124373956843"
      },
      "geometry": {
        "type": "Point",
        "coordinates": [
          -36.66924912808328,
          79.76532640049308
        ]
      }
    },
    {
      "type": "Feature",
      "properties": {
        "norad_id": 31215,
        "name": "FENGYUN 1C DEB",
        "group": "fengyun-1c-debris",
        "lat": 14.104050852750705,
        "lon": -162.10796454256132,
        "alt_km": 767.5813106664609,
        "timestamp": "2025-12-21T16:47:55.019450+00:00",
        "meta_object_name": "FENGYUN 1C DEB",
        "meta_object_id": "1999-025BKV",
        "meta_epoch": "2025-12-20T18:57:37.311552",
        "meta_mean_motion": 14.33825554,
        "meta_eccentricity": 0.00698283,
        "meta_inclination": 99.0704,
        "meta_ra_of_asc_node": 199.2388,
        "meta_arg_of_pericenter": 300.9021,
        "meta_mean_anomaly": 58.5309,
        "meta_ephemeris_type": 0,
        "meta_classification_type": "U",
        "meta_norad_cat_id": 31215,
        "meta_element_set_no": 999,
        "meta_rev_at_epoch": 96641,
        "meta_bstar": 0.00060930469,
        "meta_mean_motion_dot": 1.693e-05,
        "meta_mean_motion_ddot": 0,
        "tle_line1": "1 31215U 99025BKV 25354.79001518  .00001693  00000+0  60930-3 0  9996",
        "tle_line2": "2 31215  99.0704 199.2388 0069828 300.9021  58.5309 14.33825554966417"
      },
      "geometry": {
        "type": "Point",
        "coordinates": [
          -162.10796454256132,
          14.104050852750705
        ]
      }
    },
    {
      "type": "Feature",
      "properties": {
        "norad_id": 31217,
        "name": "FENGYUN 1C DEB",
        "group": "fengyun-1c-debris",
        "lat": 2.4957504755245368,
        "lon": 2.96133689605406,
        "alt_km": 883.7405825039586,
        "timestamp": "2025-12-21T16:47:55.019460+00:00",
        "meta_object_name": "FENGYUN 1C DEB",
        "meta_object_id": "1999-025BKX",
        "meta_epoch": "2025-12-17T17:55:15.855456",
        "meta_mean_motion": 14.17549567,
        "meta_eccentricity": 0.0099896,
        "meta_inclination": 98.6404,
        "meta_ra_of_asc_node": 359.4964,
        "meta_arg_of_pericenter": 145.7057,
        "meta_mean_anomaly": 215.0622,
        "meta_ephemeris_type": 0,
        "meta_classification_type": "U",
        "meta_norad_cat_id": 31217,
        "meta_element_set_no": 999,
        "meta_rev_at_epoch": 96419,
        "meta_bstar": 0.00045754541,
        "meta_mean_motion_dot": 9.34e-06,
        "meta_mean_motion_ddot": 0,
        "tle_line1": "1 31217U 99025BKX 25351.74671129  .00000934  00000+0  45755-3 0  9996",
        "tle_line2": "2 31217  98.6404 359.4964 0099896 145.7057 215.0622 14.17549567964193"
      },
      "geometry": {
        "type": "Point",
        "coordinates": [
          2.96133689605406,
          2.4957504755245368
        ]
      }
    },
    {
      "type": "Feature",
      "properties": {
        "norad_id": 31218,
        "name": "FENGYUN 1C DEB",
        "group": "fengyun-1c-debris",
        "lat": -55.939046679871154,
        "lon": -86.64942041108094,
        "alt_km": 663.3203018109243,
        "timestamp": "2025-12-21T16:47:55.019470+00:00",
        "meta_object_name": "FENGYUN 1C DEB",
        "meta_object_id": "1999-025BKY",
        "meta_epoch": "2025-12-19T06:39:31.870944",
        "meta_mean_motion": 14.72783214,
        "meta_eccentricity": 0.0011838,
        "meta_inclination": 98.8431,
        "meta_ra_of_asc_node": 104.029,
        "meta_arg_of_pericenter": 6.0846,
        "meta_mean_anomaly": 354.0501,
        "meta_ephemeris_type": 0,
        "meta_classification_type": "U",
        "meta_norad_cat_id": 31218,
        "meta_element_set_no": 999,
        "meta_rev_at_epoch": 97179,
        "meta_bstar": 0.0026727,
        "meta_mean_motion_dot": 0.00017081,
        "meta_mean_motion_ddot": 0,
        "tle_line1": "1 31218U 99025BKY 25353.27745221  .00017081  00000+0  26727-2 0  9990",
        "tle_line2": "2 31218  98.8431 104.0290 0011838   6.0846 354.0501 14.72783214971791"
      },
      "geometry": {
        "type": "Point",
        "coordinates": [
          -86.64942041108094,
          -55.939046679871154
        ]
      }
    },
    {
      "type": "Feature",
      "properties": {
        "norad_id": 31219,
        "name": "FENGYUN 1C DEB",
        "group": "fengyun-1c-debris",
        "lat": 0.634993889874884,
        "lon": 5.795610484193157,
        "alt_km": 899.3394239229483,
        "timestamp": "2025-12-21T16:47:55.019482+00:00",
        "meta_object_name": "FENGYUN 1C DEB",
        "meta_object_id": "1999-025BKZ",
        "meta_epoch": "2025-12-21T11:42:00.500256",
        "meta_mean_motion": 14.13828001,
        "meta_eccentricity": 0.007934,
        "meta_inclination": 99.2832,
        "meta_ra_of_asc_node": 5.679,
        "meta_arg_of_pericenter": 152.7688,
        "meta_mean_anomaly": 207.7678,
        "meta_ephemeris_type": 0,
        "meta_classification_type": "U",
        "meta_norad_cat_id": 31219,
        "meta_element_set_no": 999,
        "meta_rev_at_epoch": 95693,
        "meta_bstar": 0.0010391,
        "meta_mean_motion_dot": 1.981e-05,
        "meta_mean_motion_ddot": 0,
        "tle_line1": "1 31219U 99025BKZ 25355.48750579  .00001981  00000+0  10391-2 0  9990",
        "tle_line2": "2 31219  99.2832   5.6790 0079340 152.7688 207.7678 14.13828001956935"
      },
      "geometry": {
        "type": "Point",
        "coordinates": [
          5.795610484193157,
          0.634993889874884
        ]
      }
    },
    {
      "type": "Feature",
      "properties": {
        "norad_id": 31222,
        "name": "FENGYUN 1C DEB",
        "group": "fengyun-1c-debris",
        "lat": 15.125241945715333,
        "lon": 64.24806688910549,
        "alt_km": 466.51073226832887,
        "timestamp": "2025-12-21T16:47:55.019494+00:00",
        "meta_object_name": "FENGYUN 1C DEB",
        "meta_object_id": "1999-025BLC",
        "meta_epoch": "2025-12-21T03:54:26.542080",
        "meta_mean_motion": 14.97951126,
        "meta_eccentricity": 0.01700752,
        "meta_inclination": 98.6143,
        "meta_ra_of_asc_node": 66.0039,
        "meta_arg_of_pericenter": 42.1322,
        "meta_mean_anomaly": 319.2828,
        "meta_ephemeris_type": 0,
        "meta_classification_type": "U",
        "meta_norad_cat_id": 31222,
        "meta_element_set_no": 999,
        "meta_rev_at_epoch": 109,
        "meta_bstar": 0.00037014863,
        "meta_mean_motion_dot": 5.807e-05,
        "meta_mean_motion_ddot": 0,
        "tle_line1": "1 31222U 99025BLC 25355.16280720  .00005807  00000+0  37015-3 0  9999",
        "tle_line2": "2 31222  98.6143  66.0039 0170075  42.1322 319.2828 14.97951126  1099"
      },
      "geometry": {
        "type": "Point",
        "coordinates": [
          64.24806688910549,
          15.125241945715333
        ]
      }
    },
    {
      "type": "Feature",
      "properties": {
        "norad_id": 31223,
        "name": "FENGYUN 1C DEB",
        "group": "fengyun-1c-debris",
        "lat": -19.54171649320262,
        "lon": 58.326923782806496,
        "alt_km": 1157.7654637917376,
        "timestamp": "2025-12-21T16:47:55.019506+00:00",
        "meta_object_name": "FENGYUN 1C DEB",
        "meta_object_id": "1999-025BLD",
        "meta_epoch": "2025-12-20T15:25:38.218944",
        "meta_mean_motion": 13.77291138,
        "meta_eccentricity": 0.02440292,
        "meta_inclination": 99.0064,
        "meta_ra_of_asc_node": 240.5512,
        "meta_arg_of_pericenter": 20.0497,
        "meta_mean_anomaly": 341.0043,
        "meta_ephemeris_type": 0,
        "meta_classification_type": "U",
        "meta_norad_cat_id": 31223,
        "meta_element_set_no": 999,
        "meta_rev_at_epoch": 92837,
        "meta_bstar": 0.0020350073,
        "meta_mean_motion_dot": 2.475e-05,
        "meta_mean_motion_ddot": 0,
        "tle_line1": "1 31223U 99025BLD 25354.64280346  .00002475  00000+0  20350-2 0  9997",
        "tle_line2": "2 31223  99.0064 240.5512 0244029  20.0497 341.0043 13.77291138928379"
      },
      "geometry": {
        "type": "Point",
        "coordinates": [
          58.326923782806496,
          -19.54171649320262
        ]
      }
    }
  ]
}